OBJECT_NAME,OBJECT_ID,EPOCH,MEAN_MOTION,ECCENTRICITY,INCLINATION,RA_OF_ASC_NODE,ARG_OF_PERICENTER,MEAN_ANOMALY,EPHEMERIS_TYPE,CLASSIFICATION_TYPE,NORAD_CAT_ID,ELEMENT_SET_NO,REV_AT_EPOCH,BSTAR,MEAN_MOTION_DOT,MEAN_MOTION_DDOT
DUBAISAT-1,2009-041B,2026-07-20T09:27:15.616800,14.75171313,.00095336,98.0091,334.2959,330.8817,29.1859,0,U,35682,999,90999,.69838194E-4,.421E-5,0
OCEANSAT-2,2009-051A,2026-07-20T14:00:20.494656,13.99656232,.00176728,98.2325,185.1007,138.0572,222.1952,0,U,35931,999,88400,.69845129E-4,.65E-6,0
WORLDVIEW-2 (WV-2),2009-055A,2026-07-20T13:33:36.181440,14.37907882,.00054862,98.4752,274.5601,117.0856,243.0891,0,U,35946,999,88044,.29167761E-4,.45E-6,0
SMOS,2009-059A,2026-07-20T03:08:13.822656,14.39737721,.00011995,98.4431,27.9829,97.7912,262.3413,0,U,36036,999,87819,.55402252E-4,.13E-5,0
YAOGAN-7,2009-069A,2026-07-20T09:31:01.741152,14.78038174,.00232513,98.0025,87.0518,293.7752,66.1020,0,U,36110,999,89453,.33278612E-4,.188E-5,0
TANDEM-X,2010-030A,2026-07-20T10:55:30.544032,15.19149380,.00018995,97.4460,208.6898,95.3384,264.8068,0,U,36605,999,89169,.7936673E-5,.1E-5,0
CARTOSAT-2B,2010-035A,2026-07-20T13:35:07.443168,14.78654946,.00127557,97.9930,251.8988,84.7009,275.5657,0,U,36795,999,86478,.86018911E-4,.579E-5,0
YAOGAN-10,2010-038A,2026-07-20T15:17:31.228800,14.85438922,.00015852,97.8968,224.7751,83.6012,23.2862,0,U,36834,999,86217,.13341245E-3,.1096E-4,0
COSMO-SKYMED 4,2010-060A,2026-07-20T15:48:53.337024,14.82149298,.0001479,97.8900,24.7744,86.6642,273.4740,0,U,37216,999,84952,-.13656622E-4,-.161E-5,0
RESOURCESAT-2,2011-015A,2026-07-20T12:30:03.426336,14.21600328,.00118621,98.7627,268.7294,156.3699,203.8026,0,U,37387,999,79091,.29527885E-4,.21E-6,0
HAIYANG-2A,2011-043A,2026-07-20T16:27:03.362112,13.73154724,.0001725,99.3412,203.5905,19.0738,341.0475,0,U,37781,999,75125,.33995E-4,-.12E-6,0
RASAT,2011-044D,2026-07-20T14:01:11.225280,14.68196105,.00219682,98.0578,292.4722,86.7872,38.4451,0,U,37791,999,79808,.56101582E-4,.275E-5,0
SRMSAT,2011-058D,2026-07-20T08:49:17.450976,14.11581727,.00116043,19.9702,218.6370,208.2906,179.8338,0,U,37841,999,76251,.35427981E-4,.33E-5,0
PLEIADES 1A,2011-076F,2026-07-20T14:49:28.820352,14.58549442,.00016198,98.1961,276.2695,77.4293,58.8663,0,U,38012,999,77686,.87195162E-4,.36E-5,0
ZIYUAN 1-02C (ZY 1-02C),2011-079A,2026-07-20T14:58:35.990688,14.38238992,.00059581,98.4051,268.2317,196.6725,305.9273,0,U,38038,999,76401,.13470183E-3,.366E-5,0
ARIRANG-3 (KOMPSAT-3),2012-025B,2026-07-20T15:09:46.977408,14.62231755,.00058832,98.1189,158.5188,23.9496,336.1978,0,U,38338,999,75623,.53632062E-4,.224E-5,0
EXACTVIEW-1 (ADS-1B),2012-039C,2026-07-20T07:29:40.992864,14.24993042,.00118935,98.9809,319.4557,78.1158,282.1353,0,U,38709,999,72742,.38899966E-4,.45E-6,0
SPOT 6,2012-047A,2026-07-20T14:34:17.664960,14.58540878,.00011156,98.2099,268.5220,92.3089,267.8238,0,U,38755,999,73792,.63391549E-4,.249E-5,0
PLEIADES 1B,2012-068A,2026-07-20T13:22:18.612768,14.58536164,.00014837,98.1932,276.1472,78.6390,281.4976,0,U,39019,999,72571,.41953863E-4,.149E-5,0
GOKTURK 2,2012-073A,2026-07-20T13:55:18.124032,14.75570997,.00010457,97.6812,37.3358,103.8076,256.3251,0,U,39030,999,72943,.48320846E-4,.282E-5,0
LANDSAT 8,2013-008A,2026-07-20T12:51:21.755808,14.57096385,.00013453,98.2285,271.2721,91.7446,268.3906,0,U,39084,999,70275,.41595917E-4,.142E-5,0
SARAL,2013-009A,2026-07-20T15:05:42.391968,14.32896615,.00020158,98.5559,27.7736,154.1393,205.9892,0,U,39086,999,70039,.27449736E-4,.31E-6,0
GAOFEN-1,2013-018A,2026-07-20T14:35:36.841056,14.76521415,.00175542,97.9077,272.9943,154.1374,206.0718,0,U,39150,999,71317,.17692562E-4,.73E-6,0
VNREDSAT 1,2013-021B,2026-07-20T13:25:06.513888,14.64886818,.00015197,97.9057,253.6918,82.2897,277.8480,0,U,39160,999,70517,.41283318E-4,.175E-5,0
ARIRANG-5 (KOMPSAT-5),2013-042A,2026-07-20T14:52:29.143200,15.04494630,.00047557,97.6204,27.8504,42.6309,317.5285,0,U,39227,999,70888,-.6214397E-5,-.148E-5,0
SKYSAT-A,2013-066C,2026-07-20T03:00:50.097312,15.13130846,.00209349,97.3797,249.4729,195.8174,164.2407,0,U,39418,999,69346,.90737769E-4,.1551E-4,0
DUBAISAT-2,2013-066D,2026-07-20T14:17:09.440160,15.10391485,.00091909,97.4584,190.8721,281.0546,78.9650,0,U,39419,999,69143,.88298141E-4,.1388E-4,0
GPM-CORE,2014-009C,2026-07-20T13:08:59.505216,15.45081309,.00108669,64.9698,196.3455,263.6777,96.3126,0,U,39574,999,70296,.80846309E-4,.3589E-4,0
SENTINEL-1A,2014-016A,2026-07-20T13:20:47.662944,14.59174518,.00014451,98.1735,208.5999,82.9304,277.2060,0,U,39634,999,65488,.61416589E-4,.244E-5,0
KAZEOSAT 1,2014-024A,2026-07-20T14:30:12.963744,14.42039200,.00011945,98.3188,273.2177,86.6261,273.5066,0,U,39731,999,64337,.85918896E-4,.239E-5,0
