DUBAISAT-1              
1 35682U 09041B   26201.39393075  .00000421  00000+0  69838-4 0  9992
2 35682  98.0091 334.2959 0009533 330.8817  29.1859 14.75171313909991
OCEANSAT-2              
1 35931U 09051A   26201.58357054  .00000065  00000+0  69845-4 0  9990
2 35931  98.2325 185.1007 0017672 138.0572 222.1952 13.99656232884002
WORLDVIEW-2 (WV-2)      
1 35946U 09055A   26201.56500210  .00000045  00000+0  29168-4 0  9994
2 35946  98.4752 274.5601 0005486 117.0856 243.0891 14.37907882880440
SMOS                    
1 36036U 09059A   26201.13071554  .00000130  00000+0  55402-4 0  9991
2 36036  98.4431  27.9829 0001199  97.7912 262.3413 14.39737721878199
YAOGAN-7                
1 36110U 09069A   26201.39654793  .00000188  00000+0  33279-4 0  9996
2 36110  98.0025  87.0518 0023251 293.7752  66.1020 14.78038174894531
TANDEM-X                
1 36605U 10030A   26201.45521463  .00000100  00000+0  79367-5 0  9992
2 36605  97.4460 208.6898 0001899  95.3384 264.8068 15.19149380891690
CARTOSAT-2B             
1 36795U 10035A   26201.56605837  .00000579  00000+0  86019-4 0  9998
2 36795  97.9930 251.8988 0012755  84.7009 275.5657 14.78654946864782
YAOGAN-10               
1 36834U 10038A   26201.63716700  .00001096  00000+0  13341-3 0  9997
2 36834  97.8968 224.7751 0001585  83.6012  23.2862 14.85438922862173
COSMO-SKYMED 4          
1 37216U 10060A   26201.65895066 -.00000161  00000+0 -13657-4 0  9997
2 37216  97.8900  24.7744 0001479  86.6642 273.4740 14.82149298849528
RESOURCESAT-2           
1 37387U 11015A   26201.52087299  .00000021  00000+0  29528-4 0  9991
2 37387  98.7627 268.7294 0011862 156.3699 203.8026 14.21600328790918
HAIYANG-2A              
1 37781U 11043A   26201.68545558 -.00000012  00000+0  33995-4 0  9998
2 37781  99.3412 203.5905 0001725  19.0738 341.0475 13.73154724751254
RASAT                   
1 37791U 11044D   26201.58415770  .00000275  00000+0  56102-4 0  9996
2 37791  98.0578 292.4722 0021968  86.7872  38.4451 14.68196105798086
SRMSAT                  
1 37841U 11058D   26201.36756309  .00000330  00000+0  35428-4 0  9999
2 37841  19.9702 218.6370 0011604 208.2906 179.8338 14.11581727762516
PLEIADES 1A             
1 38012U 11076F   26201.61769468  .00000360  00000+0  87195-4 0  9999
2 38012  98.1961 276.2695 0001619  77.4293  58.8663 14.58549442776862
ZIYUAN 1-02C (ZY 1-02C) 
1 38038U 11079A   26201.62402767  .00000366  00000+0  13470-3 0  9997
2 38038  98.4051 268.2317 0005958 196.6725 305.9273 14.38238992764019
ARIRANG-3 (KOMPSAT-3)   
1 38338U 12025B   26201.63179372  .00000224  00000+0  53632-4 0  9994
2 38338  98.1189 158.5188 0005883  23.9496 336.1978 14.62231755756232
EXACTVIEW-1 (ADS-1B)    
1 38709U 12039C   26201.31228001  .00000045  00000+0  38900-4 0  9992
2 38709  98.9809 319.4557 0011893  78.1158 282.1353 14.24993042727422
SPOT 6                  
1 38755U 12047A   26201.60714890  .00000249  00000+0  63392-4 0  9999
2 38755  98.2099 268.5220 0001115  92.3089 267.8238 14.58540878737925
PLEIADES 1B             
1 39019U 12068A   26201.55715987  .00000149  00000+0  41954-4 0  9997
2 39019  98.1932 276.1472 0001483  78.6390 281.4976 14.58536164725716
GOKTURK 2               
1 39030U 12073A   26201.58007088  .00000282  00000+0  48321-4 0  9998
2 39030  97.6812  37.3358 0001045 103.8076 256.3251 14.75570997729437
LANDSAT 8               
1 39084U 13008A   26201.53566847  .00000142  00000+0  41596-4 0  9996
2 39084  98.2285 271.2721 0001345  91.7446 268.3906 14.57096385702759
SARAL                   
1 39086U 13009A   26201.62896287  .00000031  00000+0  27450-4 0  9993
2 39086  98.5559  27.7736 0002015 154.1393 205.9892 14.32896615700394
GAOFEN-1                
1 39150U 13018A   26201.60806529  .00000073  00000+0  17693-4 0  9997
2 39150  97.9077 272.9943 0017554 154.1374 206.0718 14.76521415713171
VNREDSAT 1              
1 39160U 13021B   26201.55910317  .00000175  00000+0  41283-4 0  9992
2 39160  97.9057 253.6918 0001519  82.2897 277.8480 14.64886818705174
ARIRANG-5 (KOMPSAT-5)   
1 39227U 13042A   26201.61978175 -.00000148  00000+0 -62144-5 0  9994
2 39227  97.6204  27.8504 0004755  42.6309 317.5285 15.04494630708882
SKYSAT-A                
1 39418U 13066C   26201.12557983  .00001551  00000+0  90738-4 0  9994
2 39418  97.3797 249.4729 0020934 195.8174 164.2407 15.13130846693463
DUBAISAT-2              
1 39419U 13066D   26201.59524815  .00001388  00000+0  88298-4 0  9990
2 39419  97.4584 190.8721 0009190 281.0546  78.9650 15.10391485691433
GPM-CORE                
1 39574U 14009C   26201.54791094  .00003589  00000+0  80846-4 0  9996
2 39574  64.9698 196.3455 0010866 263.6777  96.3126 15.45081309702961
SENTINEL-1A             
1 39634U 14016A   26201.55610721  .00000244  00000+0  61417-4 0  9997
2 39634  98.1735 208.5999 0001445  82.9304 277.2060 14.59174518654882
KAZEOSAT 1              
1 39731U 14024A   26201.60431671  .00000239  00000+0  85919-4 0  9992
2 39731  98.3188 273.2177 0001194  86.6261 273.5066 14.42039200643372
